[{"OBJECT_NAME":"ONEWEB-0287","OBJECT_ID":"2021-075C","EPOCH":"2026-03-09T22:02:02.385888","MEAN_MOTION":13.17647802,"ECCENTRICITY":0.00018032,"INCLINATION":87.915,"RA_OF_ASC_NODE":25.5785,"ARG_OF_PERICENTER":66.5637,"MEAN_ANOMALY":293.5684,"EPHEMERIS_TYPE":0,"CLASSIFICATION_TYPE":"U","NORAD_CAT_ID":49077,"ELEMENT_SET_NO":999,"REV_AT_EPOCH":22055,"BSTAR":-1.298876e-5,"MEAN_MOTION_DOT":8.0e-8,"MEAN_MOTION_DDOT":0},{"OBJECT_NAME":"SL-14 DEB","OBJECT_ID":"1991-056Y","EPOCH":"2026-03-09T12:40:05.556576","MEAN_MOTION":13.15664701,"ECCENTRICITY":0.0023415,"INCLINATION":82.6266,"RA_OF_ASC_NODE":230.5038,"ARG_OF_PERICENTER":64.2715,"MEAN_ANOMALY":296.082,"EPHEMERIS_TYPE":0,"CLASSIFICATION_TYPE":"U","NORAD_CAT_ID":45286,"ELEMENT_SET_NO":999,"REV_AT_EPOCH":29068,"BSTAR":0.0007556411,"MEAN_MOTION_DOT":2.98e-6,"MEAN_MOTION_DDOT":0}]
